KUIPER-00008            
1 63724U 25088A   26020.98048908  .00018979  00000+0  15625-2 0  9995
2 63724  51.8912 304.4495 0007415 302.1656  57.8595 14.99082426 40906
KUIPER-00009            
1 63725U 25088B   26020.83695896  .00016454  00000+0  21825-2 0  9999
2 63725  51.9038 318.2352 0009772 304.2857  55.7179 14.79899035 40697
KUIPER-00010            
1 63726U 25088C   26020.96392188  .00016274  00000+0  21547-2 0  9993
2 63726  51.9012 294.1308 0000620 161.4573 198.6412 14.80009066 40667
KUIPER-00011            
1 63727U 25088D   26020.98964905  .00016721  00000+0  22103-2 0  9994
2 63727  51.9007 301.5874 0011043 325.2380  34.7860 14.80023823 40697
KUIPER-00012            
1 63728U 25088E   26020.97665215  .00013087  00000+0  18769-2 0  9991
2 63728  51.9018 285.9155 0008061 333.8517  26.2035 14.76751835 40865
KUIPER-00013            
1 63729U 25088F   26020.83557872  .00020206  00000+0  26645-2 0  9999
2 63729  51.9032 319.7010 0004183 231.0483 129.0107 14.80041301 40485
KUIPER-00014            
1 63730U 25088G   26020.83311373  .00008447  00000+0  11319-2 0  9990
2 63730  51.9030 320.6744 0004704 319.1052  40.9557 14.80072989 40283
KUIPER-00015            
1 63731U 25088H   26020.88326011  .00013168  00000+0  16560-2 0  9990
2 63731  51.9005 330.8364 0009062 277.7760  82.2174 14.82303071 40605
