<?xml version="1.0" encoding="UTF-8"?>
<ndm xmlns:xsi="http://www.w3.org/2001/XMLSchema-instance" xsi:noNamespaceSchemaLocation="https://sanaregistry.org/r/ndmxml_unqualified/ndmxml-2.0.0-master-2.0.xsd">
<omm id="CCSDS_OMM_VERS" version="2.0">
<header><CREATION_DATE/><ORIGINATOR/></header><body><segment><metadata><OBJECT_NAME>KUIPER-00008</OBJECT_NAME><OBJECT_ID>2025-088A</OBJECT_ID><CENTER_NAME>EARTH</CENTER_NAME><REF_FRAME>TEME</REF_FRAME><TIME_SYSTEM>UTC</TIME_SYSTEM><MEAN_ELEMENT_THEORY>SGP4</MEAN_ELEMENT_THEORY></metadata><data><meanElements><EPOCH>2026-01-20T23:31:54.256512</EPOCH><MEAN_MOTION>14.99082426</MEAN_MOTION><ECCENTRICITY>.00074155</ECCENTRICITY><INCLINATION>51.8912</INCLINATION><RA_OF_ASC_NODE>304.4495</RA_OF_ASC_NODE><ARG_OF_PERICENTER>302.1656</ARG_OF_PERICENTER><MEAN_ANOMALY>57.8595</MEAN_ANOMALY></meanElements><tleParameters><EPHEMERIS_TYPE>0</EPHEMERIS_TYPE><CLASSIFICATION_TYPE>U</CLASSIFICATION_TYPE><NORAD_CAT_ID>63724</NORAD_CAT_ID><ELEMENT_SET_NO>999</ELEMENT_SET_NO><REV_AT_EPOCH>4090</REV_AT_EPOCH><BSTAR>.15625134E-2</BSTAR><MEAN_MOTION_DOT>.18979E-3</MEAN_MOTION_DOT><MEAN_MOTION_DDOT>0</MEAN_MOTION_DDOT></tleParameters></data></segment></body></omm>
<omm id="CCSDS_OMM_VERS" version="2.0">
<header><CREATION_DATE/><ORIGINATOR/></header><body><segment><metadata><OBJECT_NAME>KUIPER-00009</OBJECT_NAME><OBJECT_ID>2025-088B</OBJECT_ID><CENTER_NAME>EARTH</CENTER_NAME><REF_FRAME>TEME</REF_FRAME><TIME_SYSTEM>UTC</TIME_SYSTEM><MEAN_ELEMENT_THEORY>SGP4</MEAN_ELEMENT_THEORY></metadata><data><meanElements><EPOCH>2026-01-20T20:05:13.254144</EPOCH><MEAN_MOTION>14.79899035</MEAN_MOTION><ECCENTRICITY>.00097721</ECCENTRICITY><INCLINATION>51.9038</INCLINATION><RA_OF_ASC_NODE>318.2352</RA_OF_ASC_NODE><ARG_OF_PERICENTER>304.2857</ARG_OF_PERICENTER><MEAN_ANOMALY>55.7179</MEAN_ANOMALY></meanElements><tleParameters><EPHEMERIS_TYPE>0</EPHEMERIS_TYPE><CLASSIFICATION_TYPE>U</CLASSIFICATION_TYPE><NORAD_CAT_ID>63725</NORAD_CAT_ID><ELEMENT_SET_NO>999</ELEMENT_SET_NO><REV_AT_EPOCH>4069</REV_AT_EPOCH><BSTAR>.21824714E-2</BSTAR><MEAN_MOTION_DOT>.16454E-3</MEAN_MOTION_DOT><MEAN_MOTION_DDOT>0</MEAN_MOTION_DDOT></tleParameters></data></segment></body></omm>
<omm id="CCSDS_OMM_VERS" version="2.0">
<header><CREATION_DATE/><ORIGINATOR/></header><body><segment><metadata><OBJECT_NAME>KUIPER-00010</OBJECT_NAME><OBJECT_ID>2025-088C</OBJECT_ID><CENTER_NAME>EARTH</CENTER_NAME><REF_FRAME>TEME</REF_FRAME><TIME_SYSTEM>UTC</TIME_SYSTEM><MEAN_ELEMENT_THEORY>SGP4</MEAN_ELEMENT_THEORY></metadata><data><meanElements><EPOCH>2026-01-20T23:08:02.850432</EPOCH><MEAN_MOTION>14.80009066</MEAN_MOTION><ECCENTRICITY>.00006208</ECCENTRICITY><INCLINATION>51.9012</INCLINATION><RA_OF_ASC_NODE>294.1308</RA_OF_ASC_NODE><ARG_OF_PERICENTER>161.4573</ARG_OF_PERICENTER><MEAN_ANOMALY>198.6412</MEAN_ANOMALY></meanElements><tleParameters><EPHEMERIS_TYPE>0</EPHEMERIS_TYPE><CLASSIFICATION_TYPE>U</CLASSIFICATION_TYPE><NORAD_CAT_ID>63726</NORAD_CAT_ID><ELEMENT_SET_NO>999</ELEMENT_SET_NO><REV_AT_EPOCH>4066</REV_AT_EPOCH><BSTAR>.21547185E-2</BSTAR><MEAN_MOTION_DOT>.16274E-3</MEAN_MOTION_DOT><MEAN_MOTION_DDOT>0</MEAN_MOTION_DDOT></tleParameters></data></segment></body></omm>
<omm id="CCSDS_OMM_VERS" version="2.0">
<header><CREATION_DATE/><ORIGINATOR/></header><body><segment><metadata><OBJECT_NAME>KUIPER-00011</OBJECT_NAME><OBJECT_ID>2025-088D</OBJECT_ID><CENTER_NAME>EARTH</CENTER_NAME><REF_FRAME>TEME</REF_FRAME><TIME_SYSTEM>UTC</TIME_SYSTEM><MEAN_ELEMENT_THEORY>SGP4</MEAN_ELEMENT_THEORY></metadata><data><meanElements><EPOCH>2026-01-20T23:45:05.677920</EPOCH><MEAN_MOTION>14.80023823</MEAN_MOTION><ECCENTRICITY>.00110437</ECCENTRICITY><INCLINATION>51.9007</INCLINATION><RA_OF_ASC_NODE>301.5874</RA_OF_ASC_NODE><ARG_OF_PERICENTER>325.2380</ARG_OF_PERICENTER><MEAN_ANOMALY>34.7860</MEAN_ANOMALY></meanElements><tleParameters><EPHEMERIS_TYPE>0</EPHEMERIS_TYPE><CLASSIFICATION_TYPE>U</CLASSIFICATION_TYPE><NORAD_CAT_ID>63727</NORAD_CAT_ID><ELEMENT_SET_NO>999</ELEMENT_SET_NO><REV_AT_EPOCH>4069</REV_AT_EPOCH><BSTAR>.22103215E-2</BSTAR><MEAN_MOTION_DOT>.16721E-3</MEAN_MOTION_DOT><MEAN_MOTION_DDOT>0</MEAN_MOTION_DDOT></tleParameters></data></segment></body></omm>
<omm id="CCSDS_OMM_VERS" version="2.0">
<header><CREATION_DATE/><ORIGINATOR/></header><body><segment><metadata><OBJECT_NAME>KUIPER-00012</OBJECT_NAME><OBJECT_ID>2025-088E</OBJECT_ID><CENTER_NAME>EARTH</CENTER_NAME><REF_FRAME>TEME</REF_FRAME><TIME_SYSTEM>UTC</TIME_SYSTEM><MEAN_ELEMENT_THEORY>SGP4</MEAN_ELEMENT_THEORY></metadata><data><meanElements><EPOCH>2026-01-20T23:26:22.745760</EPOCH><MEAN_MOTION>14.76751835</MEAN_MOTION><ECCENTRICITY>.00080614</ECCENTRICITY><INCLINATION>51.9018</INCLINATION><RA_OF_ASC_NODE>285.9155</RA_OF_ASC_NODE><ARG_OF_PERICENTER>333.8517</ARG_OF_PERICENTER><MEAN_ANOMALY>26.2035</MEAN_ANOMALY></meanElements><tleParameters><EPHEMERIS_TYPE>0</EPHEMERIS_TYPE><CLASSIFICATION_TYPE>U</CLASSIFICATION_TYPE><NORAD_CAT_ID>63728</NORAD_CAT_ID><ELEMENT_SET_NO>999</ELEMENT_SET_NO><REV_AT_EPOCH>4086</REV_AT_EPOCH><BSTAR>.18769071E-2</BSTAR><MEAN_MOTION_DOT>.13087E-3</MEAN_MOTION_DOT><MEAN_MOTION_DDOT>0</MEAN_MOTION_DDOT></tleParameters></data></segment></body></omm>
<omm id="CCSDS_OMM_VERS" version="2.0">
<header><CREATION_DATE/><ORIGINATOR/></header><body><segment><metadata><OBJECT_NAME>KUIPER-00013</OBJECT_NAME><OBJECT_ID>2025-088F</OBJECT_ID><CENTER_NAME>EARTH</CENTER_NAME><REF_FRAME>TEME</REF_FRAME><TIME_SYSTEM>UTC</TIME_SYSTEM><MEAN_ELEMENT_THEORY>SGP4</MEAN_ELEMENT_THEORY></metadata><data><meanElements><EPOCH>2026-01-20T20:03:14.001408</EPOCH><MEAN_MOTION>14.80041301</MEAN_MOTION><ECCENTRICITY>.00041831</ECCENTRICITY><INCLINATION>51.9032</INCLINATION><RA_OF_ASC_NODE>319.7010</RA_OF_ASC_NODE><ARG_OF_PERICENTER>231.0483</ARG_OF_PERICENTER><MEAN_ANOMALY>129.0107</MEAN_ANOMALY></meanElements><tleParameters><EPHEMERIS_TYPE>0</EPHEMERIS_TYPE><CLASSIFICATION_TYPE>U</CLASSIFICATION_TYPE><NORAD_CAT_ID>63729</NORAD_CAT_ID><ELEMENT_SET_NO>999</ELEMENT_SET_NO><REV_AT_EPOCH>4048</REV_AT_EPOCH><BSTAR>.26644536E-2</BSTAR><MEAN_MOTION_DOT>.20206E-3</MEAN_MOTION_DOT><MEAN_MOTION_DDOT>0</MEAN_MOTION_DDOT></tleParameters></data></segment></body></omm>
<omm id="CCSDS_OMM_VERS" version="2.0">
<header><CREATION_DATE/><ORIGINATOR/></header><body><segment><metadata><OBJECT_NAME>KUIPER-00014</OBJECT_NAME><OBJECT_ID>2025-088G</OBJECT_ID><CENTER_NAME>EARTH</CENTER_NAME><REF_FRAME>TEME</REF_FRAME><TIME_SYSTEM>UTC</TIME_SYSTEM><MEAN_ELEMENT_THEORY>SGP4</MEAN_ELEMENT_THEORY></metadata><data><meanElements><EPOCH>2026-01-20T19:59:41.026272</EPOCH><MEAN_MOTION>14.80072989</MEAN_MOTION><ECCENTRICITY>.00047045</ECCENTRICITY><INCLINATION>51.9030</INCLINATION><RA_OF_ASC_NODE>320.6744</RA_OF_ASC_NODE><ARG_OF_PERICENTER>319.1052</ARG_OF_PERICENTER><MEAN_ANOMALY>40.9557</MEAN_ANOMALY></meanElements><tleParameters><EPHEMERIS_TYPE>0</EPHEMERIS_TYPE><CLASSIFICATION_TYPE>U</CLASSIFICATION_TYPE><NORAD_CAT_ID>63730</NORAD_CAT_ID><ELEMENT_SET_NO>999</ELEMENT_SET_NO><REV_AT_EPOCH>4028</REV_AT_EPOCH><BSTAR>.11318623E-2</BSTAR><MEAN_MOTION_DOT>.8447E-4</MEAN_MOTION_DOT><MEAN_MOTION_DDOT>0</MEAN_MOTION_DDOT></tleParameters></data></segment></body></omm>
<omm id="CCSDS_OMM_VERS" version="2.0">
<header><CREATION_DATE/><ORIGINATOR/></header><body><segment><metadata><OBJECT_NAME>KUIPER-00015</OBJECT_NAME><OBJECT_ID>2025-088H</OBJECT_ID><CENTER_NAME>EARTH</CENTER_NAME><REF_FRAME>TEME</REF_FRAME><TIME_SYSTEM>UTC</TIME_SYSTEM><MEAN_ELEMENT_THEORY>SGP4</MEAN_ELEMENT_THEORY></metadata><data><meanElements><EPOCH>2026-01-20T21:11:53.673504</EPOCH><MEAN_MOTION>14.82303071</MEAN_MOTION><ECCENTRICITY>.0009062</ECCENTRICITY><INCLINATION>51.9005</INCLINATION><RA_OF_ASC_NODE>330.8364</RA_OF_ASC_NODE><ARG_OF_PERICENTER>277.7760</ARG_OF_PERICENTER><MEAN_ANOMALY>82.2174</MEAN_ANOMALY></meanElements><tleParameters><EPHEMERIS_TYPE>0</EPHEMERIS_TYPE><CLASSIFICATION_TYPE>U</CLASSIFICATION_TYPE><NORAD_CAT_ID>63731</NORAD_CAT_ID><ELEMENT_SET_NO>999</ELEMENT_SET_NO><REV_AT_EPOCH>4060</REV_AT_EPOCH><BSTAR>.16560048E-2</BSTAR><MEAN_MOTION_DOT>.13168E-3</MEAN_MOTION_DOT><MEAN_MOTION_DDOT>0</MEAN_MOTION_DDOT></tleParameters></data></segment></body></omm>

</ndm>
